GLOBALSTAR M068         
1 32266U 07048D   25259.11726819 -.00000071  00000+0  18089-3 0  9993
2 32266  51.9909  25.0685 0000865  21.6916 149.6379 12.62828470829046
GLOBALSTAR M079         
1 37188U 10054A   25259.25545962 -.00000087  00000+0  96056-4 0  9993
2 37188  52.0024 222.5599 0000575  89.0753  49.0973 12.62266738687955
GLOBALSTAR M074         
1 37189U 10054B   25259.28394340 -.00000097  00000+0  36506-4 0  9994
2 37189  52.0001 221.7826 0000280  73.1722  73.5432 12.62271346688569
GLOBALSTAR M076         
1 37190U 10054C   25259.20203708 -.00000089  00000+0  80424-4 0  9994
2 37190  52.0015 222.2112 0000396 107.5605 266.6493 12.62265277688276
GLOBALSTAR M077         
1 37191U 10054D   25259.21950144 -.00000100  00000+0  20847-4 0  9996
2 37191  52.0066 179.0245 0000575  65.6567  98.9975 12.62323339688645
GLOBALSTAR M075         
1 37192U 10054E   25259.06188687 -.00000076  00000+0  15426-3 0  9993
2 37192  51.9931 264.8454 0000302  90.7742 306.9866 12.62267736687325
GLOBALSTAR M073         
1 37193U 10054F   25259.24845652 -.00000109  00000+0 -29952-4 0  9994
2 37193  52.0055 178.1646 0000620  81.9389  83.7322 12.62262507689338
GLOBALSTAR M083         
1 37739U 11033A   25259.01865811 -.00000104  00000+0 -92264-6 0  9995
2 37739  51.9846 127.4711 0000901  79.3133  61.7220 12.62275666658328
GLOBALSTAR M088         
1 37740U 11033B   25259.15692912 -.00000106  00000+0 -12860-4 0  9996
2 37740  52.0234  32.8104 0000729  89.6053  79.7009 12.62267807653889
GLOBALSTAR M091         
1 37741U 11033C   25259.21481854 -.00000098  00000+0  32716-4 0  9996
2 37741  52.0028 356.0048 0000798  91.1664 282.7853 12.62270084654684
GLOBALSTAR M085         
1 37742U 11033D   25259.12519808 -.00000084  00000+0  11063-3 0  9994
2 37742  52.0134 307.3341 0000625  91.7667 294.1183 12.62264692655183
GLOBALSTAR M081         
1 37743U 11033E   25259.15004750 -.00000078  00000+0  14441-3 0  9999
2 37743  51.9969 310.0077 0000612 112.8111 265.2079 12.62268183655339
GLOBALSTAR M089         
1 37744U 11033F   25259.26743596 -.00000073  00000+0  17287-3 0  9996
2 37744  51.9915 263.8587 0000140 138.8491 233.7054 12.62266730656191
GLOBALSTAR M084         
1 38040U 11080A   25259.07327697 -.00000105  00000+0 -94691-5 0  9990
2 38040  51.9996 131.7849 0000462  89.1442  60.3052 12.62268917634147
GLOBALSTAR M080         
1 38041U 11080B   25259.04329463 -.00000103  00000+0  25296-5 0  9993
2 38041  52.0049 133.5003 0001040  50.5757  91.8051 12.62268965634269
GLOBALSTAR M082         
1 38042U 11080C   25259.30253354 -.00000097  00000+0  35345-4 0  9995
2 38042  52.0066  88.1795 0001105  66.9176 104.9315 12.62268664635008
GLOBALSTAR M092         
1 38043U 11080D   25259.19579615 -.00000103  00000+0  18209-5 0  9993
2 38043  52.0078 178.8881 0000560  62.2881 103.4480 12.62265854633442
GLOBALSTAR M090         
1 38044U 11080E   25259.24991718 -.00000104  00000+0 -11969-5 0  9990
2 38044  52.0115  82.2064 0000980  86.3887  85.9508 12.62262409635119
GLOBALSTAR M086         
1 38045U 11080F   25259.27515215 -.00000099  00000+0  24878-4 0  9992
2 38045  51.9889  82.5049 0001407 132.7986  38.6683 12.62276921635060
GLOBALSTAR M097         
1 39072U 13005A   25259.26466299 -.00000112  00000+0 -45163-4 0  9995
2 39072  52.0075 357.1817 0000776 106.1127 253.9825 12.62265621582318
GLOBALSTAR M093         
1 39073U 13005B   25259.23861847 -.00000094  00000+0  55871-4 0  9996
2 39073  52.0135 350.5042 0000976 104.9326 255.1649 12.62264275582268
GLOBALSTAR M094         
1 39074U 13005C   25259.15922599 -.00000084  00000+0  10758-3 0  9993
2 39074  51.9945 265.1355 0000571  93.6270 266.4662 12.62269879583869
GLOBALSTAR M096         
1 39075U 13005D   25259.17238414 -.00000086  00000+0  98945-4 0  9999
2 39075  52.0085 313.6820 0000683  99.9410 260.1534 12.62266757582783
GLOBALSTAR M078         
1 39076U 13005E   25259.06710831 -.00000100  00000+0  21655-4 0  9997
2 39076  51.9891  38.3860 0001264  53.1782 306.9201 12.62260096581398
GLOBALSTAR M095         
1 39077U 13005F   25258.69717285 -.00000107  00000+0 -19349-4 0  9991
2 39077  52.0098  36.7259 0001194  82.1023 277.9979 12.62259815581202
GLOBALSTAR M087         
1 52888U 22064A   25258.94863758 -.00000100  00000+0  21347-4 0  9999
2 52888  51.9987 177.3626 0000808  63.4851 296.6099 12.62301412156507
